OBJECT_NAME,OBJECT_ID,EPOCH,MEAN_MOTION,ECCENTRICITY,INCLINATION,RA_OF_ASC_NODE,ARG_OF_PERICENTER,MEAN_ANOMALY,EPHEMERIS_TYPE,CLASSIFICATION_TYPE,NORAD_CAT_ID,ELEMENT_SET_NO,REV_AT_EPOCH,BSTAR,MEAN_MOTION_DOT,MEAN_MOTION_DDOT
ONEWEB-0536,2022-138AM,2026-06-11T16:32:36.311424,13.20771015,.0002863,87.9179,275.5538,111.9772,248.1666,0,U,54148,999,17857,-.11849E-3,-.35E-6,0
ONEWEB-0527,2022-166A,2026-06-11T20:00:01.999008,13.21818963,.0001921,87.9262,245.0614,100.8294,47.7591,0,U,54642,999,527,-.11148E+0,-.4579E-3,0
ONEWEB-0528,2022-166B,2026-06-11T17:27:16.599744,13.21752378,.0001959,87.9256,245.0860,100.5120,259.6235,0,U,54643,999,17082,.23714E-1,.9807E-4,0
ONEWEB-0539,2022-166C,2026-06-11T16:32:52.450080,13.21826552,.0002006,87.9260,245.0647,92.8356,267.3007,0,U,54644,999,17081,-.56926E-4,-.1E-6,0
ONEWEB-0540,2022-166D,2026-06-11T16:42:45.402048,13.21826694,.0002059,87.9254,245.0940,96.0410,264.0959,0,U,54645,999,17080,-.99074E-4,-.28E-6,0
ONEWEB-0542,2022-166E,2026-06-11T16:47:23.871840,13.21827558,.0002069,87.9264,245.0613,90.9231,269.2140,0,U,54646,999,17081,-.11204E-3,-.33E-6,0
ONEWEB-0545,2022-166F,2026-06-11T15:56:31.439328,13.21827748,.0002225,87.9255,245.0805,86.3029,273.8360,0,U,54647,999,17077,-.12792E-3,-.4E-6,0
ONEWEB-0580,2022-166G,2026-06-11T18:58:11.658144,13.21827175,.0002313,87.9253,245.0552,91.0159,269.1240,0,U,54648,999,17083,-.25154E-4,.3E-7,0
ONEWEB-0582,2022-166H,2026-06-11T16:20:45.784608,13.21826541,.0002228,87.9254,245.0695,88.5672,271.5717,0,U,54649,999,17079,-.17375E-3,-.59E-6,0
ONEWEB-0583,2022-166J,2026-06-11T16:37:42.532896,13.21827353,.0002062,87.9254,245.0906,95.8330,264.3039,0,U,54650,999,17080,-.9477E-4,-.26E-6,0
ONEWEB-0584,2022-166K,2026-06-11T18:55:46.392096,13.21824920,.0002145,87.9251,245.0570,97.1731,262.9647,0,U,54651,999,17080,-.30022E-6,.13E-6,0
ONEWEB-0585,2022-166L,2026-06-11T15:51:41.897376,13.21826010,.0001951,87.9257,245.0694,103.3195,256.8157,0,U,54652,999,17079,-.81943E-5,.1E-6,0
ONEWEB-0586,2022-166M,2026-06-11T16:11:02.626080,13.21823862,.0002018,87.9254,245.0922,94.0477,266.0887,0,U,54653,999,17079,-.17516E-3,-.59E-6,0
ONEWEB-0587,2022-166N,2026-06-11T16:25:34.544640,13.21824087,.0001943,87.9265,245.0632,109.3457,250.7887,0,U,54654,999,17095,-.20519E-3,-.72E-6,0
ONEWEB-0589,2022-166P,2026-06-11T16:06:12.101760,13.21823930,.000256,87.9252,245.0788,82.1851,277.9573,0,U,54655,999,17081,-.97393E-4,-.27E-6,0
ONEWEB-0590,2022-166Q,2026-06-11T16:42:21.760416,13.21826811,.0002478,87.9263,245.0636,102.8938,257.2473,0,U,54656,999,17080,-.128E-3,-.4E-6,0
ONEWEB-0591,2022-166R,2026-06-11T18:48:31.739616,13.21826262,.0002106,87.9252,245.0613,99.3525,260.7847,0,U,54657,999,17084,-.50706E-4,-.8E-7,0
ONEWEB-0592,2022-166S,2026-06-11T18:53:21.577056,13.21827216,.0002041,87.9263,245.0382,99.0323,261.1042,0,U,54658,999,17072,-.14443E-3,-.47E-6,0
ONEWEB-0593,2022-166T,2026-06-11T17:35:49.243776,13.21828105,.000195,87.9256,245.0610,94.4823,265.6534,0,U,54659,999,17082,-.87603E-4,-.23E-6,0
ONEWEB-0594,2022-166U,2026-06-11T14:26:54.427776,13.21813769,.0002038,87.9257,245.1036,101.5209,258.6153,0,U,54660,999,17082,-.3059E-2,-.125E-4,0
ONEWEB-0595,2022-166V,2026-06-11T15:41:59.576064,13.21826846,.0002052,87.9261,245.0733,106.3891,253.7469,0,U,54661,999,17080,-.81747E-5,.1E-6,0
ONEWEB-0596,2022-166W,2026-06-11T18:43:40.689120,13.21826414,.0002042,87.9255,245.0600,102.1357,258.0006,0,U,54662,999,17082,-.12921E-3,-.4E-6,0
ONEWEB-0597,2022-166X,2026-06-11T16:28:01.682976,13.21826574,.000204,87.9253,245.0820,95.7705,264.3662,0,U,54663,999,17081,-.18934E-3,-.65E-6,0
ONEWEB-0600,2022-166Y,2026-06-11T16:01:21.233568,13.21823821,.0001859,87.9254,245.0770,95.7624,264.3722,0,U,54664,999,17078,-.20654E-4,.4E-7,0
ONEWEB-0601,2022-166Z,2026-06-11T17:38:15.694368,13.21825174,.0002151,87.9254,245.0798,92.8500,267.2880,0,U,54665,999,17098,-.14269E-4,.7E-7,0
ONEWEB-0602,2022-166AA,2026-06-11T18:37:36.672960,13.21825859,.0001798,87.9253,245.0775,93.7994,266.3346,0,U,54666,999,17083,-.22178E-3,-.79E-6,0
ONEWEB-0603,2022-166AB,2026-06-11T18:46:06.191040,13.21826147,.0002,87.9262,245.0328,96.0879,264.0483,0,U,54667,999,17076,-.94721E-4,-.26E-6,0
ONEWEB-0604,2022-166AC,2026-06-11T16:40:07.778208,13.21826992,.0002004,87.9264,245.0658,101.4583,258.6776,0,U,54668,999,17071,-.13538E-3,-.43E-6,0
ONEWEB-0605,2022-166AD,2026-06-11T16:30:27.449280,13.21826344,.0002597,87.9256,245.0810,92.7341,267.4091,0,U,54669,999,17078,-.13346E-3,-.42E-6,0
ONEWEB-0606,2022-166AE,2026-06-11T18:50:56.700672,13.21826233,.0001988,87.9254,245.0741,104.4163,255.7192,0,U,54670,999,17085,.5769E-4,.37E-6,0
