ONEWEB-0536             
1 54148U 22138AM  26162.68930916 -.00000035  00000+0 -11849-3 0  9992
2 54148  87.9179 275.5538 0002863 111.9772 248.1666 13.20771015178575
ONEWEB-0527             
1 54642U 22166A   26162.83335647 -.00045790  00000+0 -11148+0 0  9994
2 54642  87.9262 245.0614 0001921 100.8294  47.7591 13.21818963  5275
ONEWEB-0528             
1 54643U 22166B   26162.72727546  .00009807  00000+0  23714-1 0  9997
2 54643  87.9256 245.0860 0001959 100.5120 259.6235 13.21752378170828
ONEWEB-0539             
1 54644U 22166C   26162.68949595 -.00000010  00000+0 -56926-4 0  9996
2 54644  87.9260 245.0647 0002006  92.8356 267.3007 13.21826552170813
ONEWEB-0540             
1 54645U 22166D   26162.69635882 -.00000028  00000+0 -99074-4 0  9999
2 54645  87.9254 245.0940 0002059  96.0410 264.0959 13.21826694170804
ONEWEB-0542             
1 54646U 22166E   26162.69958185 -.00000033  00000+0 -11204-3 0  9998
2 54646  87.9264 245.0613 0002069  90.9231 269.2140 13.21827558170818
ONEWEB-0545             
1 54647U 22166F   26162.66425277 -.00000040  00000+0 -12792-3 0  9998
2 54647  87.9255 245.0805 0002225  86.3029 273.8360 13.21827748170771
ONEWEB-0580             
1 54648U 22166G   26162.79041271  .00000003  00000+0 -25154-4 0  9996
2 54648  87.9253 245.0552 0002313  91.0159 269.1240 13.21827175170830
ONEWEB-0582             
1 54649U 22166H   26162.68108547 -.00000059  00000+0 -17375-3 0  9992
2 54649  87.9254 245.0695 0002228  88.5672 271.5717 13.21826541170793
ONEWEB-0583             
1 54650U 22166J   26162.69285339 -.00000026  00000+0 -94770-4 0  9999
2 54650  87.9254 245.0906 0002062  95.8330 264.3039 13.21827353170809
ONEWEB-0584             
1 54651U 22166K   26162.78873139  .00000013  00000+0 -30022-6 0  9998
2 54651  87.9251 245.0570 0002145  97.1731 262.9647 13.21824920170802
ONEWEB-0585             
1 54652U 22166L   26162.66090159  .00000010  00000+0 -81943-5 0  9993
2 54652  87.9257 245.0694 0001951 103.3195 256.8157 13.21826010170792
ONEWEB-0586             
1 54653U 22166M   26162.67433595 -.00000059  00000+0 -17516-3 0  9997
2 54653  87.9254 245.0922 0002018  94.0477 266.0887 13.21823862170793
ONEWEB-0587             
1 54654U 22166N   26162.68442760 -.00000072  00000+0 -20519-3 0  9995
2 54654  87.9265 245.0632 0001943 109.3457 250.7887 13.21824087170956
ONEWEB-0589             
1 54655U 22166P   26162.67097340 -.00000027  00000+0 -97393-4 0  9990
2 54655  87.9252 245.0788 0002560  82.1851 277.9573 13.21823930170811
ONEWEB-0590             
1 54656U 22166Q   26162.69608519 -.00000040  00000+0 -12800-3 0  9993
2 54656  87.9263 245.0636 0002478 102.8938 257.2473 13.21826811170800
ONEWEB-0591             
1 54657U 22166R   26162.78370069 -.00000008  00000+0 -50706-4 0  9992
2 54657  87.9252 245.0613 0002106  99.3525 260.7847 13.21826262170842
ONEWEB-0592             
1 54658U 22166S   26162.78705529 -.00000047  00000+0 -14443-3 0  9996
2 54658  87.9263 245.0382 0002041  99.0323 261.1042 13.21827216170728
ONEWEB-0593             
1 54659U 22166T   26162.73320884 -.00000023  00000+0 -87603-4 0  9992
2 54659  87.9256 245.0610 0001950  94.4823 265.6534 13.21828105170821
ONEWEB-0594             
1 54660U 22166U   26162.60201884 -.00001250  00000+0 -30590-2 0  9992
2 54660  87.9257 245.1036 0002038 101.5209 258.6153 13.21813769170822
ONEWEB-0595             
1 54661U 22166V   26162.65416176  .00000010  00000+0 -81747-5 0  9995
2 54661  87.9261 245.0733 0002052 106.3891 253.7469 13.21826846170801
ONEWEB-0596             
1 54662U 22166W   26162.78033205 -.00000040  00000+0 -12921-3 0  9998
2 54662  87.9255 245.0600 0002042 102.1357 258.0006 13.21826414170826
ONEWEB-0597             
1 54663U 22166X   26162.68613059 -.00000065  00000+0 -18934-3 0  9996
2 54663  87.9253 245.0820 0002040  95.7705 264.3662 13.21826574170815
ONEWEB-0600             
1 54664U 22166Y   26162.66760687  .00000004  00000+0 -20654-4 0  9990
2 54664  87.9254 245.0770 0001859  95.7624 264.3722 13.21823821170783
ONEWEB-0601             
1 54665U 22166Z   26162.73490387  .00000007  00000+0 -14269-4 0  9994
2 54665  87.9254 245.0798 0002151  92.8500 267.2880 13.21825174170983
ONEWEB-0602             
1 54666U 22166AA  26162.77611890 -.00000079  00000+0 -22178-3 0  9990
2 54666  87.9253 245.0775 0001798  93.7994 266.3346 13.21825859170832
ONEWEB-0603             
1 54667U 22166AB  26162.78201610 -.00000026  00000+0 -94721-4 0  9993
2 54667  87.9262 245.0328 0002000  96.0879 264.0483 13.21826147170762
ONEWEB-0604             
1 54668U 22166AC  26162.69453447 -.00000043  00000+0 -13538-3 0  9996
2 54668  87.9264 245.0658 0002004 101.4583 258.6776 13.21826992170715
ONEWEB-0605             
1 54669U 22166AD  26162.68781770 -.00000042  00000+0 -13346-3 0  9995
2 54669  87.9256 245.0810 0002597  92.7341 267.4091 13.21826344170784
ONEWEB-0606             
1 54670U 22166AE  26162.78537848  .00000037  00000+0  57690-4 0  9996
2 54670  87.9254 245.0741 0001988 104.4163 255.7192 13.21826233170850
